{
    "links": {
        "self": "http://www.neowsapp.com/rest/v1/neo/3760524?api_key=iIulBulltgU6a56xZRHN4H3l9WmuAYTsLGpBGhQ2"
    },
    "id": "3760524",
    "neo_reference_id": "3760524",
    "name": "(2016 TN11)",
    "designation": "2016 TN11",
    "nasa_jpl_url": "http://ssd.jpl.nasa.gov/sbdb.cgi?sstr=3760524",
    "absolute_magnitude_h": 23.5,
    "estimated_diameter": {
        "kilometers": {
            "estimated_diameter_min": 0.0530340723,
            "estimated_diameter_max": 0.1185877909
        },
        "meters": {
            "estimated_diameter_min": 53.0340723319,
            "estimated_diameter_max": 118.5877908577
        },
        "miles": {
            "estimated_diameter_min": 0.0329538346,
            "estimated_diameter_max": 0.0736870142
        },
        "feet": {
            "estimated_diameter_min": 173.9963058693,
            "estimated_diameter_max": 389.0675677576
        }
    },
    "is_potentially_hazardous_asteroid": false,
    "close_approach_data": [
        {
            "close_approach_date": "2016-09-24",
            "close_approach_date_full": "2016-Sep-24 19:20",
            "epoch_date_close_approach": 1474744800000,
            "relative_velocity": {
                "kilometers_per_second": "11.0697402103",
                "kilometers_per_hour": "39851.0647569216",
                "miles_per_hour": "24761.9018763216"
            },
            "miss_distance": {
                "astronomical": "0.1068519063",
                "lunar": "41.5653915507",
                "kilometers": "15984817.587919581",
                "miles": "9932505.0727529778"
            },
            "orbiting_body": "Earth"
        },
        {
            "close_approach_date": "2142-10-17",
            "close_approach_date_full": "2142-Oct-17 08:13",
            "epoch_date_close_approach": 5452819980000,
            "relative_velocity": {
                "kilometers_per_second": "19.935941175",
                "kilometers_per_hour": "71769.3882301375",
                "miles_per_hour": "44594.7068144429"
            },
            "miss_distance": {
                "astronomical": "0.3512814527",
                "lunar": "136.6484851003",
                "kilometers": "52550957.094425749",
                "miles": "32653650.5685793762"
            },
            "orbiting_body": "Earth"
        },
        {
            "close_approach_date": "2153-06-21",
            "close_approach_date_full": "2153-Jun-21 05:44",
            "epoch_date_close_approach": 5789771040000,
            "relative_velocity": {
                "kilometers_per_second": "14.4450203157",
                "kilometers_per_hour": "52002.0731366338",
                "miles_per_hour": "32312.06594426"
            },
            "miss_distance": {
                "astronomical": "0.393575726",
                "lunar": "153.100957414",
                "kilometers": "58878090.29330362",
                "miles": "36585148.832365156"
            },
            "orbiting_body": "Earth"
        },
        {
            "close_approach_date": "2166-09-16",
            "close_approach_date_full": "2166-Sep-16 06:14",
            "epoch_date_close_approach": 6207516840000,
            "relative_velocity": {
                "kilometers_per_second": "9.8689964988",
                "kilometers_per_hour": "35528.3873957645",
                "miles_per_hour": "22075.9582682182"
            },
            "miss_distance": {
                "astronomical": "0.2050137219",
                "lunar": "79.7503378191",
                "kilometers": "30669616.117012353",
                "miles": "19057215.7602743514"
            },
            "orbiting_body": "Earth"
        }
    ],
    "orbital_data": {
        "orbit_id": "6",
        "orbit_determination_date": "2018-02-10 07:08:19",
        "first_observation_date": "2016-10-05",
        "last_observation_date": "2016-10-27",
        "data_arc_in_days": 22,
        "observations_used": 35,
        "orbit_uncertainty": "7",
        "minimum_orbit_intersection": ".0820894",
        "jupiter_tisserand_invariant": "4.091",
        "epoch_osculation": "2459000.5",
        "eccentricity": ".4119549452545509",
        "semi_major_axis": "1.677681327058164",
        "inclination": "17.08607742004212",
        "ascending_node_longitude": "195.2924633040394",
        "orbital_period": "793.711427311575",
        "perihelion_distance": ".9865522078153358",
        "perihelion_argument": "128.5965482915387",
        "aphelion_distance": "2.368810446300992",
        "perihelion_time": "2459207.213518779853",
        "mean_anomaly": "266.2419108506367",
        "mean_motion": ".4535653483273844",
        "equinox": "J2000",
        "orbit_class": {
            "orbit_class_type": "APO",
            "orbit_class_description": "Near-Earth asteroid orbits which cross the Earth’s orbit similar to that of 1862 Apollo",
            "orbit_class_range": "a (semi-major axis) > 1.0 AU; q (perihelion) < 1.017 AU"
        }
    },
    "is_sentry_object": false
}